{
  "type": "FeatureCollection",
  "features": [
    {
      "type": "Feature",
      "properties": {
        "norad_id": 41330,
        "name": "COSMOS 2514 (751)",
        "group": "glo-ops",
        "lat": -50.13449364981068,
        "lon": -74.70478228378134,
        "alt_km": 19131.523823957075,
        "timestamp": "2025-12-23T16:57:12.613123+00:00",
        "meta_object_name": "COSMOS 2514 (751)",
        "meta_object_id": "2016-008A",
        "meta_epoch": "2025-12-22T20:14:18.279168",
        "meta_mean_motion": 2.13102647,
        "meta_eccentricity": 0.00116826,
        "meta_inclination": 65.1279,
        "meta_ra_of_asc_node": 319.0581,
        "meta_arg_of_pericenter": 220.1101,
        "meta_mean_anomaly": 139.8009,
        "meta_ephemeris_type": 0,
        "meta_classification_type": "U",
        "meta_norad_cat_id": 41330,
        "meta_element_set_no": 999,
        "meta_rev_at_epoch": 7686,
        "meta_bstar": 0,
        "meta_mean_motion_dot": -3.8e-07,
        "meta_mean_motion_ddot": 0,
        "tle_line1": "1 41330U 16008A   25356.84326712 -.00000038  00000+0  00000+0 0  9990",
        "tle_line2": "2 41330  65.1279 319.0581 0011682 220.1101 139.8009  2.13102647 76868"
      },
      "geometry": {
        "type": "Point",
        "coordinates": [
          -74.70478228378134,
          -50.13449364981068
        ]
      }
    },
    {
      "type": "Feature",
      "properties": {
        "norad_id": 42939,
        "name": "COSMOS 2522 (752)",
        "group": "glo-ops",
        "lat": 55.31482949392619,
        "lon": -117.45441030879765,
        "alt_km": 19138.546860400227,
        "timestamp": "2025-12-23T16:57:12.613134+00:00",
        "meta_object_name": "COSMOS 2522 (752)",
        "meta_object_id": "2017-055A",
        "meta_epoch": "2025-12-22T05:05:46.710816",
        "meta_mean_motion": 2.13102066,
        "meta_eccentricity": 0.00062992,
        "meta_inclination": 64.0765,
        "meta_ra_of_asc_node": 197.9063,
        "meta_arg_of_pericenter": 223.6863,
        "meta_mean_anomaly": 136.3303,
        "meta_ephemeris_type": 0,
        "meta_classification_type": "U",
        "meta_norad_cat_id": 42939,
        "meta_element_set_no": 999,
        "meta_rev_at_epoch": 6420,
        "meta_bstar": 0,
        "meta_mean_motion_dot": 9.5e-07,
        "meta_mean_motion_ddot": 0,
        "tle_line1": "1 42939U 17055A   25356.21234619  .00000095  00000+0  00000+0 0  9996",
        "tle_line2": "2 42939  64.0765 197.9063 0006299 223.6863 136.3303  2.13102066 64200"
      },
      "geometry": {
        "type": "Point",
        "coordinates": [
          -117.45441030879765,
          55.31482949392619
        ]
      }
    },
    {
      "type": "Feature",
      "properties": {
        "norad_id": 43508,
        "name": "COSMOS 2527 (756)",
        "group": "glo-ops",
        "lat": 64.7999571010899,
        "lon": -175.8047260879438,
        "alt_km": 19138.142173013715,
        "timestamp": "2025-12-23T16:57:12.613145+00:00",
        "meta_object_name": "COSMOS 2527 (756)",
        "meta_object_id": "2018-053A",
        "meta_epoch": "2025-12-23T02:40:53.485824",
        "meta_mean_motion": 2.13102391,
        "meta_eccentricity": 0.00089977,
        "meta_inclination": 65.4775,
        "meta_ra_of_asc_node": 79.785,
        "meta_arg_of_pericenter": 227.5336,
        "meta_mean_anomaly": 132.4355,
        "meta_ephemeris_type": 0,
        "meta_classification_type": "U",
        "meta_norad_cat_id": 43508,
        "meta_element_set_no": 999,
        "meta_rev_at_epoch": 5852,
        "meta_bstar": 0,
        "meta_mean_motion_dot": 1e-08,
        "meta_mean_motion_ddot": 0,
        "tle_line1": "1 43508U 18053A   25357.11173016  .00000001  00000+0  00000+0 0  9998",
        "tle_line2": "2 43508  65.4775  79.7850 0008997 227.5336 132.4355  2.13102391 58528"
      },
      "geometry": {
        "type": "Point",
        "coordinates": [
          -175.8047260879438,
          64.7999571010899
        ]
      }
    },
    {
      "type": "Feature",
      "properties": {
        "norad_id": 43687,
        "name": "COSMOS 2529 (757)",
        "group": "glo-ops",
        "lat": 19.293534368876564,
        "lon": -151.76338709682472,
        "alt_km": 19138.676630000136,
        "timestamp": "2025-12-23T16:57:12.613157+00:00",
        "meta_object_name": "COSMOS 2529 (757)",
        "meta_object_id": "2018-086A",
        "meta_epoch": "2025-12-21T19:13:53.194368",
        "meta_mean_motion": 2.13102139,
        "meta_eccentricity": 0.00069117,
        "meta_inclination": 64.2926,
        "meta_ra_of_asc_node": 198.5821,
        "meta_arg_of_pericenter": 253.6836,
        "meta_mean_anomaly": 106.3102,
        "meta_ephemeris_type": 0,
        "meta_classification_type": "U",
        "meta_norad_cat_id": 43687,
        "meta_element_set_no": 999,
        "meta_rev_at_epoch": 5550,
        "meta_bstar": 0,
        "meta_mean_motion_dot": 9.6e-07,
        "meta_mean_motion_ddot": 0,
        "tle_line1": "1 43687U 18086A   25355.80131012  .00000096  00000+0  00000+0 0  9990",
        "tle_line2": "2 43687  64.2926 198.5821 0006911 253.6836 106.3102  2.13102139 55503"
      },
      "geometry": {
        "type": "Point",
        "coordinates": [
          -151.76338709682472,
          19.293534368876564
        ]
      }
    },
    {
      "type": "Feature",
      "properties": {
        "norad_id": 44299,
        "name": "COSMOS 2534 (758)",
        "group": "glo-ops",
        "lat": 21.633324240027807,
        "lon": 7.544203440217066,
        "alt_km": 19141.11231447552,
        "timestamp": "2025-12-23T16:57:12.613168+00:00",
        "meta_object_name": "COSMOS 2534 (758)",
        "meta_object_id": "2019-030A",
        "meta_epoch": "2025-12-23T06:38:38.752224",
        "meta_mean_motion": 2.13102317,
        "meta_eccentricity": 0.00086492,
        "meta_inclination": 64.3662,
        "meta_ra_of_asc_node": 198.5378,
        "meta_arg_of_pericenter": 283.8843,
        "meta_mean_anomaly": 262.5113,
        "meta_ephemeris_type": 0,
        "meta_classification_type": "U",
        "meta_norad_cat_id": 44299,
        "meta_element_set_no": 999,
        "meta_rev_at_epoch": 5117,
        "meta_bstar": 0,
        "meta_mean_motion_dot": 9.5e-07,
        "meta_mean_motion_ddot": 0,
        "tle_line1": "1 44299U 19030A   25357.27683741  .00000095  00000+0  00000+0 0  9993",
        "tle_line2": "2 44299  64.3662 198.5378 0008649 283.8843 262.5113  2.13102317 51175"
      },
      "geometry": {
        "type": "Point",
        "coordinates": [
          7.544203440217066,
          21.633324240027807
        ]
      }
    },
    {
      "type": "Feature",
      "properties": {
        "norad_id": 44850,
        "name": "COSMOS 2544 (759)",
        "group": "glo-ops",
        "lat": 37.09771427127297,
        "lon": -120.56730676842666,
        "alt_km": 19139.129311309953,
        "timestamp": "2025-12-23T16:57:12.613179+00:00",
        "meta_object_name": "COSMOS 2544 (759)",
        "meta_object_id": "2019-088A",
        "meta_epoch": "2025-12-22T02:49:35.422176",
        "meta_mean_motion": 2.13102165,
        "meta_eccentricity": 0.00143119,
        "meta_inclination": 65.4645,
        "meta_ra_of_asc_node": 79.6449,
        "meta_arg_of_pericenter": 250.3028,
        "meta_mean_anomaly": 109.5843,
        "meta_ephemeris_type": 0,
        "meta_classification_type": "U",
        "meta_norad_cat_id": 44850,
        "meta_element_set_no": 999,
        "meta_rev_at_epoch": 4694,
        "meta_bstar": 0,
        "meta_mean_motion_dot": -3e-08,
        "meta_mean_motion_ddot": 0,
        "tle_line1": "1 44850U 19088A   25356.11777109 -.00000003  00000+0  00000+0 0  9993",
        "tle_line2": "2 44850  65.4645  79.6449 0014311 250.3028 109.5843  2.13102165 46946"
      },
      "geometry": {
        "type": "Point",
        "coordinates": [
          -120.56730676842666,
          37.09771427127297
        ]
      }
    },
    {
      "type": "Feature",
      "properties": {
        "norad_id": 45358,
        "name": "COSMOS 2545 (760)",
        "group": "glo-ops",
        "lat": -10.276132834336051,
        "lon": -46.39996713004416,
        "alt_km": 19135.77358387694,
        "timestamp": "2025-12-23T16:57:12.613189+00:00",
        "meta_object_name": "COSMOS 2545 (760)",
        "meta_object_id": "2020-018A",
        "meta_epoch": "2025-12-22T07:31:25.141152",
        "meta_mean_motion": 2.13102698,
        "meta_eccentricity": 0.00113434,
        "meta_inclination": 64.464,
        "meta_ra_of_asc_node": 318.6341,
        "meta_arg_of_pericenter": 250.3607,
        "meta_mean_anomaly": 109.513,
        "meta_ephemeris_type": 0,
        "meta_classification_type": "U",
        "meta_norad_cat_id": 45358,
        "meta_element_set_no": 999,
        "meta_rev_at_epoch": 4489,
        "meta_bstar": 0,
        "meta_mean_motion_dot": -4.2e-07,
        "meta_mean_motion_ddot": 0,
        "tle_line1": "1 45358U 20018A   25356.31348543 -.00000042  00000+0  00000+0 0  9993",
        "tle_line2": "2 45358  64.4640 318.6341 0011343 250.3607 109.5130  2.13102698 44898"
      },
      "geometry": {
        "type": "Point",
        "coordinates": [
          -46.39996713004416,
          -10.276132834336051
        ]
      }
    }
  ]
}